{
  "type": "FeatureCollection",
  "features": [
    {
      "type": "Feature",
      "properties": {
        "norad_id": 36453,
        "name": "COSMOS 2251 DEB",
        "group": "cosmos-2251-debris",
        "lat": -70.93246007204849,
        "lon": 0.7114085796517209,
        "alt_km": 751.4074020835478,
        "timestamp": "2025-12-27T14:26:30.918741+00:00",
        "meta_object_name": "COSMOS 2251 DEB",
        "meta_object_id": "1993-036BBC",
        "meta_epoch": "2025-12-27T02:28:26.944896",
        "meta_mean_motion": 14.52707209,
        "meta_eccentricity": 0.00707607,
        "meta_inclination": 73.9237,
        "meta_ra_of_asc_node": 125.114,
        "meta_arg_of_pericenter": 24.4373,
        "meta_mean_anomaly": 149.0425,
        "meta_ephemeris_type": 0,
        "meta_classification_type": "U",
        "meta_norad_cat_id": 36453,
        "meta_element_set_no": 999,
        "meta_rev_at_epoch": 84676,
        "meta_bstar": 0.0010340192,
        "meta_mean_motion_dot": 4.355e-05,
        "meta_mean_motion_ddot": 0,
        "tle_line1": "1 36453U 93036BBC 25361.10308964  .00004355  00000+0  10340-2 0  9996",
        "tle_line2": "2 36453  73.9237 125.1140 0070760  24.4373 149.0425 14.52707209846764"
      },
      "geometry": {
        "type": "Point",
        "coordinates": [
          0.7114085796517209,
          -70.93246007204849
        ]
      }
    },
    {
      "type": "Feature",
      "properties": {
        "norad_id": 36459,
        "name": "COSMOS 2251 DEB",
        "group": "cosmos-2251-debris",
        "lat": -36.64465565732574,
        "lon": 165.23348407066734,
        "alt_km": 882.020855185343,
        "timestamp": "2025-12-27T14:26:30.918752+00:00",
        "meta_object_name": "COSMOS 2251 DEB",
        "meta_object_id": "1993-036BBJ",
        "meta_epoch": "2025-12-20T06:23:01.272480",
        "meta_mean_motion": 14.26454896,
        "meta_eccentricity": 0.0113312,
        "meta_inclination": 74.0464,
        "meta_ra_of_asc_node": 346.1968,
        "meta_arg_of_pericenter": 79.9168,
        "meta_mean_anomaly": 281.4741,
        "meta_ephemeris_type": 0,
        "meta_classification_type": "U",
        "meta_norad_cat_id": 36459,
        "meta_element_set_no": 999,
        "meta_rev_at_epoch": 7989,
        "meta_bstar": 0.00092616994,
        "meta_mean_motion_dot": 2.362e-05,
        "meta_mean_motion_ddot": 0,
        "tle_line1": "1 36459U 93036BBJ 25354.26598695  .00002362  00000+0  92617-3 0  9997",
        "tle_line2": "2 36459  74.0464 346.1968 0113312  79.9168 281.4741 14.26454896 79891"
      },
      "geometry": {
        "type": "Point",
        "coordinates": [
          165.23348407066734,
          -36.64465565732574
        ]
      }
    },
    {
      "type": "Feature",
      "properties": {
        "norad_id": 36470,
        "name": "COSMOS 2251 DEB",
        "group": "cosmos-2251-debris",
        "lat": -56.94070383895317,
        "lon": -162.98391752937783,
        "alt_km": 552.4021122539134,
        "timestamp": "2025-12-27T14:26:30.918762+00:00",
        "meta_object_name": "COSMOS 2251 DEB",
        "meta_object_id": "1993-036BBV",
        "meta_epoch": "2025-12-26T21:12:15.465312",
        "meta_mean_motion": 15.08626133,
        "meta_eccentricity": 0.0022915,
        "meta_inclination": 73.8425,
        "meta_ra_of_asc_node": 224.9633,
        "meta_arg_of_pericenter": 51.4821,
        "meta_mean_anomaly": 308.8419,
        "meta_ephemeris_type": 0,
        "meta_classification_type": "U",
        "meta_norad_cat_id": 36470,
        "meta_element_set_no": 999,
        "meta_rev_at_epoch": 66307,
        "meta_bstar": 0.0034896,
        "meta_mean_motion_dot": 0.0005534,
        "meta_mean_motion_ddot": 0,
        "tle_line1": "1 36470U 93036BBV 25360.88351233  .00055340  00000+0  34896-2 0  9998",
        "tle_line2": "2 36470  73.8425 224.9633 0022915  51.4821 308.8419 15.08626133663070"
      },
      "geometry": {
        "type": "Point",
        "coordinates": [
          -162.98391752937783,
          -56.94070383895317
        ]
      }
    },
    {
      "type": "Feature",
      "properties": {
        "norad_id": 36528,
        "name": "COSMOS 2251 DEB",
        "group": "cosmos-2251-debris",
        "lat": -17.267323331901217,
        "lon": -56.752207219748435,
        "alt_km": 743.5122203898845,
        "timestamp": "2025-12-27T14:26:30.918772+00:00",
        "meta_object_name": "COSMOS 2251 DEB",
        "meta_object_id": "1993-036BCN",
        "meta_epoch": "2025-12-27T01:46:36.057216",
        "meta_mean_motion": 14.30726703,
        "meta_eccentricity": 0.0083786,
        "meta_inclination": 74.0183,
        "meta_ra_of_asc_node": 119.0983,
        "meta_arg_of_pericenter": 165.6268,
        "meta_mean_anomaly": 194.7295,
        "meta_ephemeris_type": 0,
        "meta_classification_type": "U",
        "meta_norad_cat_id": 36528,
        "meta_element_set_no": 999,
        "meta_rev_at_epoch": 64632,
        "meta_bstar": 0.0013259325,
        "meta_mean_motion_dot": 3.581e-05,
        "meta_mean_motion_ddot": 0,
        "tle_line1": "1 36528U 93036BCN 25361.07402844  .00003581  00000+0  13259-2 0  9999",
        "tle_line2": "2 36528  74.0183 119.0983 0083786 165.6268 194.7295 14.30726703646327"
      },
      "geometry": {
        "type": "Point",
        "coordinates": [
          -56.752207219748435,
          -17.267323331901217
        ]
      }
    },
    {
      "type": "Feature",
      "properties": {
        "norad_id": 36533,
        "name": "COSMOS 2251 DEB",
        "group": "cosmos-2251-debris",
        "lat": -56.56457331321625,
        "lon": 61.15009849592755,
        "alt_km": 718.7205732703596,
        "timestamp": "2025-12-27T14:26:30.918782+00:00",
        "meta_object_name": "COSMOS 2251 DEB",
        "meta_object_id": "1993-036BCT",
        "meta_epoch": "2025-12-24T23:47:29.202144",
        "meta_mean_motion": 14.49859831,
        "meta_eccentricity": 0.00492005,
        "meta_inclination": 74.0122,
        "meta_ra_of_asc_node": 91.7921,
        "meta_arg_of_pericenter": 238.8301,
        "meta_mean_anomaly": 120.8031,
        "meta_ephemeris_type": 0,
        "meta_classification_type": "U",
        "meta_norad_cat_id": 36533,
        "meta_element_set_no": 999,
        "meta_rev_at_epoch": 84662,
        "meta_bstar": 0.00052465602,
        "meta_mean_motion_dot": 2.029e-05,
        "meta_mean_motion_ddot": 0,
        "tle_line1": "1 36533U 93036BCT 25358.99131021  .00002029  00000+0  52466-3 0  9998",
        "tle_line2": "2 36533  74.0122  91.7921 0049200 238.8301 120.8031 14.49859831846620"
      },
      "geometry": {
        "type": "Point",
        "coordinates": [
          61.15009849592755,
          -56.56457331321625
        ]
      }
    },
    {
      "type": "Feature",
      "properties": {
        "norad_id": 36539,
        "name": "COSMOS 2251 DEB",
        "group": "cosmos-2251-debris",
        "lat": -65.50284184018005,
        "lon": -12.129377890162345,
        "alt_km": 711.2206302822269,
        "timestamp": "2025-12-27T14:26:30.918793+00:00",
        "meta_object_name": "COSMOS 2251 DEB",
        "meta_object_id": "1993-036BCZ",
        "meta_epoch": "2025-12-27T03:15:09.519840",
        "meta_mean_motion": 14.59388026,
        "meta_eccentricity": 0.00261997,
        "meta_inclination": 74.0236,
        "meta_ra_of_asc_node": 27.7158,
        "meta_arg_of_pericenter": 169.9458,
        "meta_mean_anomaly": 190.2238,
        "meta_ephemeris_type": 0,
        "meta_classification_type": "U",
        "meta_norad_cat_id": 36539,
        "meta_element_set_no": 999,
        "meta_rev_at_epoch": 84157,
        "meta_bstar": 0.00073189671,
        "meta_mean_motion_dot": 3.454e-05,
        "meta_mean_motion_ddot": 0,
        "tle_line1": "1 36539U 93036BCZ 25361.13552685  .00003454  00000+0  73190-3 0  9997",
        "tle_line2": "2 36539  74.0236  27.7158 0026199 169.9458 190.2238 14.59388026841575"
      },
      "geometry": {
        "type": "Point",
        "coordinates": [
          -12.129377890162345,
          -65.50284184018005
        ]
      }
    },
    {
      "type": "Feature",
      "properties": {
        "norad_id": 36540,
        "name": "COSMOS 2251 DEB",
        "group": "cosmos-2251-debris",
        "lat": -26.9335737488182,
        "lon": -19.422862545999315,
        "alt_km": 693.007805850034,
        "timestamp": "2025-12-27T14:26:30.918803+00:00",
        "meta_object_name": "COSMOS 2251 DEB",
        "meta_object_id": "1993-036BDA",
        "meta_epoch": "2025-12-27T03:36:51.804576",
        "meta_mean_motion": 14.58631431,
        "meta_eccentricity": 0.00145062,
        "meta_inclination": 74.0284,
        "meta_ra_of_asc_node": 153.0694,
        "meta_arg_of_pericenter": 223.0902,
        "meta_mean_anomaly": 136.9128,
        "meta_ephemeris_type": 0,
        "meta_classification_type": "U",
        "meta_norad_cat_id": 36540,
        "meta_element_set_no": 999,
        "meta_rev_at_epoch": 86220,
        "meta_bstar": 0.0016070142,
        "meta_mean_motion_dot": 7.475e-05,
        "meta_mean_motion_ddot": 0,
        "tle_line1": "1 36540U 93036BDA 25361.15059959  .00007475  00000+0  16070-2 0  9997",
        "tle_line2": "2 36540  74.0284 153.0694 0014506 223.0902 136.9128 14.58631431862201"
      },
      "geometry": {
        "type": "Point",
        "coordinates": [
          -19.422862545999315,
          -26.9335737488182
        ]
      }
    }
  ]
}